STARLINK-35868          
1 66579U 25268Y   25351.99657722  .00060248  00000+0  10242-2 0  9999
2 66579  43.0027  90.3514 0003249 265.4056  94.6433 15.50594752  5444
STARLINK-35872          
1 66580U 25268Z   25352.31831611  .00073793  00000+0  12493-2 0  9998
2 66580  43.0009  88.4650 0000447  28.7877 331.3008 15.50635749  5499
STARLINK-35744          
1 66581U 25268AA  25351.99589458  .00059743  00000+0  10158-2 0  9996
2 66581  43.0009  90.3454 0002333 267.0140  93.0453 15.50595637  5443
STARLINK-35746          
1 66582U 25268AB  25352.31762910  .00071752  00000+0  12150-2 0  9998
2 66582  42.9985  88.4588 0000632  47.6337 312.4577 15.50640666  5494
STARLINK-35941          
1 66583U 25268AC  25352.31728593  .00067672  00000+0  11468-2 0  9995
2 66583  42.9979  88.4554 0000668  67.7089 292.3842 15.50641573  5496
STARLINK-35939          
1 66584U 25268AD  25352.31694121  .00068041  00000+0  11531-2 0  9997
2 66584  42.9936  88.4476 0001937 162.9241 197.1685 15.50638957  5490
STARLINK-35963          
1 66585U 25268AE  25352.31659768  .00067965  00000+0  11518-2 0  9995
2 66585  42.9937  88.4454 0001690 166.7259 193.3646 15.50640131  5497
TJS-21                  
1 66586U 25269A   25349.21721626  .00001099  00000+0 -49389-1 0  9998
2 66586  63.2717 162.0883 6806294 269.7594  18.6638  2.00575027   486
CZ-3B R/B               
1 66587U 25269B   25351.20156094  .00072738 -91865-6  55684-3 0  9993
2 66587  51.3435 168.6023 7516855 229.5038  36.3416  2.03937792   541
STARLINK-36076          
1 66588U 25270A   25352.18315564  .00040123  00000+0  96199-3 0  9995
2 66588  42.9989 161.4122 0001982 254.1904 105.8735 15.40722227  5183
STARLINK-35447          
1 66589U 25270B   25352.25003472  .00020075  00000+0  48670-3 0  9991
2 66589  42.9993 160.7843 0001522 285.9899 184.9004 15.40691721  5390
STARLINK-35429          
1 66590U 25270C   25352.25003472 -.02282844  00000+0 -57817-1 0  9992
2 66590  42.9999 160.5763 0001374 289.5550 267.5922 15.42360807  5393
