CCSDS_OMM_VERS = 2.0
CREATION_DATE  = 
ORIGINATOR     = 

OBJECT_NAME    = STARLINK-35868
OBJECT_ID      = 2025-268Y
CENTER_NAME    = EARTH
REF_FRAME      = TEME
TIME_SYSTEM    = UTC
MEAN_ELEMENT_THEORY = SGP/SGP4

EPOCH          = 2025-12-17T23:55:04.271808
MEAN_MOTION    = 15.50594752
ECCENTRICITY   = .00032495
INCLINATION    = 43.0027
RA_OF_ASC_NODE = 90.3514
ARG_OF_PERICENTER = 265.4056
MEAN_ANOMALY   = 94.6433

EPHEMERIS_TYPE = 0
CLASSIFICATION_TYPE = U
NORAD_CAT_ID   = 66579
ELEMENT_SET_NO = 999
REV_AT_EPOCH   = 544
BSTAR          = .10241865E-2
MEAN_MOTION_DOT = .60248E-3
MEAN_MOTION_DDOT = 0

CCSDS_OMM_VERS = 2.0
CREATION_DATE  = 
ORIGINATOR     = 

OBJECT_NAME    = STARLINK-35872
OBJECT_ID      = 2025-268Z
CENTER_NAME    = EARTH
REF_FRAME      = TEME
TIME_SYSTEM    = UTC
MEAN_ELEMENT_THEORY = SGP/SGP4

EPOCH          = 2025-12-18T07:38:22.511904
MEAN_MOTION    = 15.50635749
ECCENTRICITY   = .00004474
INCLINATION    = 43.0009
RA_OF_ASC_NODE = 88.4650
ARG_OF_PERICENTER = 28.7877
MEAN_ANOMALY   = 331.3008

EPHEMERIS_TYPE = 0
CLASSIFICATION_TYPE = U
NORAD_CAT_ID   = 66580
ELEMENT_SET_NO = 999
REV_AT_EPOCH   = 549
BSTAR          = .12493236E-2
MEAN_MOTION_DOT = .73793E-3
MEAN_MOTION_DDOT = 0

CCSDS_OMM_VERS = 2.0
CREATION_DATE  = 
ORIGINATOR     = 

OBJECT_NAME    = STARLINK-35744
OBJECT_ID      = 2025-268AA
CENTER_NAME    = EARTH
REF_FRAME      = TEME
TIME_SYSTEM    = UTC
MEAN_ELEMENT_THEORY = SGP/SGP4

EPOCH          = 2025-12-17T23:54:05.291712
MEAN_MOTION    = 15.50595637
ECCENTRICITY   = .00023336
INCLINATION    = 43.0009
RA_OF_ASC_NODE = 90.3454
ARG_OF_PERICENTER = 267.0140
MEAN_ANOMALY   = 93.0453

EPHEMERIS_TYPE = 0
CLASSIFICATION_TYPE = U
NORAD_CAT_ID   = 66581
ELEMENT_SET_NO = 999
REV_AT_EPOCH   = 544
BSTAR          = .10157635E-2
MEAN_MOTION_DOT = .59743E-3
MEAN_MOTION_DDOT = 0

CCSDS_OMM_VERS = 2.0
CREATION_DATE  = 
ORIGINATOR     = 

OBJECT_NAME    = STARLINK-35746
OBJECT_ID      = 2025-268AB
CENTER_NAME    = EARTH
REF_FRAME      = TEME
TIME_SYSTEM    = UTC
MEAN_ELEMENT_THEORY = SGP/SGP4

EPOCH          = 2025-12-18T07:37:23.154240
MEAN_MOTION    = 15.50640666
ECCENTRICITY   = .00006327
INCLINATION    = 42.9985
RA_OF_ASC_NODE = 88.4588
ARG_OF_PERICENTER = 47.6337
MEAN_ANOMALY   = 312.4577

EPHEMERIS_TYPE = 0
CLASSIFICATION_TYPE = U
NORAD_CAT_ID   = 66582
ELEMENT_SET_NO = 999
REV_AT_EPOCH   = 549
BSTAR          = .1215039E-2
MEAN_MOTION_DOT = .71752E-3
MEAN_MOTION_DDOT = 0

CCSDS_OMM_VERS = 2.0
CREATION_DATE  = 
ORIGINATOR     = 

OBJECT_NAME    = STARLINK-35941
OBJECT_ID      = 2025-268AC
CENTER_NAME    = EARTH
REF_FRAME      = TEME
TIME_SYSTEM    = UTC
MEAN_ELEMENT_THEORY = SGP/SGP4

EPOCH          = 2025-12-18T07:36:53.504352
MEAN_MOTION    = 15.50641573
ECCENTRICITY   = .00006686
INCLINATION    = 42.9979
RA_OF_ASC_NODE = 88.4554
ARG_OF_PERICENTER = 67.7089
MEAN_ANOMALY   = 292.3842

EPHEMERIS_TYPE = 0
CLASSIFICATION_TYPE = U
NORAD_CAT_ID   = 66583
ELEMENT_SET_NO = 999
REV_AT_EPOCH   = 549
BSTAR          = .11468369E-2
MEAN_MOTION_DOT = .67672E-3
MEAN_MOTION_DDOT = 0

CCSDS_OMM_VERS = 2.0
CREATION_DATE  = 
ORIGINATOR     = 

OBJECT_NAME    = STARLINK-35939
OBJECT_ID      = 2025-268AD
CENTER_NAME    = EARTH
REF_FRAME      = TEME
TIME_SYSTEM    = UTC
MEAN_ELEMENT_THEORY = SGP/SGP4

EPOCH          = 2025-12-18T07:36:23.720544
MEAN_MOTION    = 15.50638957
ECCENTRICITY   = .00019372
INCLINATION    = 42.9936
RA_OF_ASC_NODE = 88.4476
ARG_OF_PERICENTER = 162.9241
MEAN_ANOMALY   = 197.1685

EPHEMERIS_TYPE = 0
CLASSIFICATION_TYPE = U
NORAD_CAT_ID   = 66584
ELEMENT_SET_NO = 999
REV_AT_EPOCH   = 549
BSTAR          = .1153067E-2
MEAN_MOTION_DOT = .68041E-3
MEAN_MOTION_DDOT = 0

CCSDS_OMM_VERS = 2.0
CREATION_DATE  = 
ORIGINATOR     = 

OBJECT_NAME    = STARLINK-35963
OBJECT_ID      = 2025-268AE
CENTER_NAME    = EARTH
REF_FRAME      = TEME
TIME_SYSTEM    = UTC
MEAN_ELEMENT_THEORY = SGP/SGP4

EPOCH          = 2025-12-18T07:35:54.039552
MEAN_MOTION    = 15.50640131
ECCENTRICITY   = .00016907
INCLINATION    = 42.9937
RA_OF_ASC_NODE = 88.4454
ARG_OF_PERICENTER = 166.7259
MEAN_ANOMALY   = 193.3646

EPHEMERIS_TYPE = 0
CLASSIFICATION_TYPE = U
NORAD_CAT_ID   = 66585
ELEMENT_SET_NO = 999
REV_AT_EPOCH   = 549
BSTAR          = .1151766E-2
MEAN_MOTION_DOT = .67965E-3
MEAN_MOTION_DDOT = 0

CCSDS_OMM_VERS = 2.0
CREATION_DATE  = 
ORIGINATOR     = 

OBJECT_NAME    = TJS-21
OBJECT_ID      = 2025-269A
CENTER_NAME    = EARTH
REF_FRAME      = TEME
TIME_SYSTEM    = UTC
MEAN_ELEMENT_THEORY = SGP/SGP4

EPOCH          = 2025-12-15T05:12:47.484864
MEAN_MOTION    = 2.00575027
ECCENTRICITY   = .68062948
INCLINATION    = 63.2717
RA_OF_ASC_NODE = 162.0883
ARG_OF_PERICENTER = 269.7594
MEAN_ANOMALY   = 18.6638

EPHEMERIS_TYPE = 0
CLASSIFICATION_TYPE = U
NORAD_CAT_ID   = 66586
ELEMENT_SET_NO = 999
REV_AT_EPOCH   = 48
BSTAR          = -.49388688E-1
MEAN_MOTION_DOT = .1099E-4
MEAN_MOTION_DDOT = 0

CCSDS_OMM_VERS = 2.0
CREATION_DATE  = 
ORIGINATOR     = 

OBJECT_NAME    = CZ-3B R/B
OBJECT_ID      = 2025-269B
CENTER_NAME    = EARTH
REF_FRAME      = TEME
TIME_SYSTEM    = UTC
MEAN_ELEMENT_THEORY = SGP/SGP4

EPOCH          = 2025-12-17T04:50:14.865216
MEAN_MOTION    = 2.03937792
ECCENTRICITY   = .75168551
INCLINATION    = 51.3435
RA_OF_ASC_NODE = 168.6023
ARG_OF_PERICENTER = 229.5038
MEAN_ANOMALY   = 36.3416

EPHEMERIS_TYPE = 0
CLASSIFICATION_TYPE = U
NORAD_CAT_ID   = 66587
ELEMENT_SET_NO = 999
REV_AT_EPOCH   = 54
BSTAR          = .55683527E-3
MEAN_MOTION_DOT = .72738E-3
MEAN_MOTION_DDOT = -.918653E-6

CCSDS_OMM_VERS = 2.0
CREATION_DATE  = 
ORIGINATOR     = 

OBJECT_NAME    = STARLINK-36076
OBJECT_ID      = 2025-270A
CENTER_NAME    = EARTH
REF_FRAME      = TEME
TIME_SYSTEM    = UTC
MEAN_ELEMENT_THEORY = SGP/SGP4

EPOCH          = 2025-12-18T04:23:44.647296
MEAN_MOTION    = 15.40722227
ECCENTRICITY   = .00019823
INCLINATION    = 42.9989
RA_OF_ASC_NODE = 161.4122
ARG_OF_PERICENTER = 254.1904
MEAN_ANOMALY   = 105.8735

EPHEMERIS_TYPE = 0
CLASSIFICATION_TYPE = U
NORAD_CAT_ID   = 66588
ELEMENT_SET_NO = 999
REV_AT_EPOCH   = 518
BSTAR          = .96199397E-3
MEAN_MOTION_DOT = .40123E-3
MEAN_MOTION_DDOT = 0

CCSDS_OMM_VERS = 2.0
CREATION_DATE  = 
ORIGINATOR     = 

OBJECT_NAME    = STARLINK-35447
OBJECT_ID      = 2025-270B
CENTER_NAME    = EARTH
REF_FRAME      = TEME
TIME_SYSTEM    = UTC
MEAN_ELEMENT_THEORY = SGP/SGP4

EPOCH          = 2025-12-18T06:00:02.999808
MEAN_MOTION    = 15.40691721
ECCENTRICITY   = .00015225
INCLINATION    = 42.9993
RA_OF_ASC_NODE = 160.7843
ARG_OF_PERICENTER = 285.9899
MEAN_ANOMALY   = 184.9004

EPHEMERIS_TYPE = 0
CLASSIFICATION_TYPE = U
NORAD_CAT_ID   = 66589
ELEMENT_SET_NO = 999
REV_AT_EPOCH   = 539
BSTAR          = .48669877E-3
MEAN_MOTION_DOT = .20075E-3
MEAN_MOTION_DDOT = 0

CCSDS_OMM_VERS = 2.0
CREATION_DATE  = 
ORIGINATOR     = 

OBJECT_NAME    = STARLINK-35429
OBJECT_ID      = 2025-270C
CENTER_NAME    = EARTH
REF_FRAME      = TEME
TIME_SYSTEM    = UTC
MEAN_ELEMENT_THEORY = SGP/SGP4

EPOCH          = 2025-12-18T06:00:02.999808
MEAN_MOTION    = 15.42360807
ECCENTRICITY   = .00013741
INCLINATION    = 42.9999
RA_OF_ASC_NODE = 160.5763
ARG_OF_PERICENTER = 289.5550
MEAN_ANOMALY   = 267.5922

EPHEMERIS_TYPE = 0
CLASSIFICATION_TYPE = U
NORAD_CAT_ID   = 66590
ELEMENT_SET_NO = 999
REV_AT_EPOCH   = 539
BSTAR          = -.57817263E-1
MEAN_MOTION_DOT = -.2282844E-1
MEAN_MOTION_DDOT = 0

